BEIDOU-3S IGSO-1S       
1 40549U 15019A   26167.83844597 -.00000175  00000+0  00000+0 0  9990
2 40549  49.1960 295.4654 0039048 191.2267 171.7059  1.00249739 41077
NAVSTAR 74 (USA 262)    
1 40730U 15033A   26168.22104834 -.00000025  00000+0  00000+0 0  9999
2 40730  53.9823 267.0852 0115076  30.2251 330.4756  2.00556182 79990
BEIDOU-3S M2S           
1 40748U 15037A   26167.78639343 -.00000071  00000+0  00000+0 0  9991
2 40748  54.8718 302.0606 0008390 259.2390 100.6546  1.86231981 74119
BEIDOU-3S M1S           
1 40749U 15037B   26167.45695291 -.00000070  00000+0  00000+0 0  9999
2 40749  54.8681 302.0590 0003448  61.6955 298.3263  1.86254753 74115
GSAT0205 (GALILEO 9)    
1 40889U 15045A   26144.30399159 -.00000014  00000+0  00000+0 0  9994
2 40889  54.9357 222.4171 0006405 263.0112  96.9692  1.67409242 66562
GSAT0206 (GALILEO 10)   
1 40890U 15045B   26166.69756315  .00000052  00000+0  00000+0 0  9994
2 40890  54.9450 221.6455 0001791 333.6365  26.4548  1.70473766 67016
BEIDOU-3S IGSO-2S       
1 40938U 15053A   26168.70526789 -.00000132  00000+0  00000+0 0  9990
2 40938  49.2207 258.7761 0065582 192.0839 164.1337  1.00258762 39350
NAVSTAR 75 (USA 265)    
1 41019U 15062A   26167.77857057 -.00000072  00000+0  00000+0 0  9995
2 41019  56.9590  30.8268 0111873 231.0319 128.0214  2.00566887 77822
GSAT-15                 
1 41028U 15065A   26168.64391103 -.00000263  00000+0  00000+0 0  9992
2 41028   0.0687 265.0590 0004225 164.0387 162.1043  1.00272214 38802
GSAT0209 (GALILEO 12)   
1 41174U 15079A   26168.03876473 -.00000012  00000+0  00000+0 0  9992
2 41174  55.8274 101.2661 0005281 344.0306  15.9200  1.70473635 64770
GSAT0208 (GALILEO 11)   
1 41175U 15079B   26167.08588476 -.00000013  00000+0  00000+0 0  9991
2 41175  55.8253 101.2890 0004864 343.1626  16.7832  1.70473579 65175
IRNSS-1E                
1 41241U 16003A   26168.73892252 -.00000320  00000+0  00000+0 0  9997
2 41241  33.2353  59.7421 0019522 175.9761  48.0133  1.00277822 38083
NAVSTAR 76 (USA 266)    
1 41328U 16007A   26164.87780104 -.00000028  00000+0  00000+0 0  9995
2 41328  55.5220  89.5909 0096121 247.4205 111.5460  2.00551861 75774
COSMOS 2514 [GLONASS-M] 
1 41330U 16008A   26168.28516000 -.00000054  00000+0  00000+0 0  9999
2 41330  65.0216 313.0031 0011293 198.0491 161.8973  2.13102573 80627
BEIDOU-2 IGSO-6         
1 41434U 16021A   26167.12386227 -.00000150  00000+0  00000+0 0  9994
2 41434  60.2243  38.0497 0057184 231.4868 132.3999  1.00259474 37472
IRNSS-1G                
1 41469U 16027A   26168.77984749 -.00000343  00000+0  00000+0 0  9997
2 41469   5.1994  97.4595 0007548 355.2759 223.5127  1.00265798 37182
GSAT0211 (GALILEO 14)   
1 41549U 16030A   26165.45012091  .00000059  00000+0  00000+0 0  9997
2 41549  55.0959 221.7703 0002887 323.8922  36.1904  1.70473900 62624
GSAT0210 (GALILEO 13)   
1 41550U 16030B   26165.70738424  .00000058  00000+0  00000+0 0  9991
2 41550  55.0955 221.7612 0004648 244.9793 115.0745  1.70473923 62622
BEIDOU-2 G7             
1 41586U 16037A   26168.84739072 -.00000359  00000+0  00000+0 0  9990
2 41586   1.7218  69.3114 0006418 358.0594 254.2501  1.00276213  6896
EUTELSAT 117 WEST B     
1 41589U 16038B   26168.46919676 -.00000016  00000+0  00000+0 0  9992
2 41589   0.0105 150.8042 0000477 293.5309 233.3050  1.00273040 36668
GSAT0207 (GALILEO 15)   
1 41859U 16069A   26167.74540736 -.00000013  00000+0  00000+0 0  9990
2 41859  55.4986 101.0985 0005268 330.2317  29.7040  1.70473533 59391
GSAT0212 (GALILEO 16)   
1 41860U 16069B   26168.18543131 -.00000013  00000+0  00000+0 0  9993
2 41860  55.4965 101.0814 0004620   0.5608 359.4079  1.70473702 59654
GSAT0213 (GALILEO 17)   
1 41861U 16069C   26166.20630291 -.00000013  00000+0  00000+0 0  9999
2 41861  55.4975 101.1440 0004958 312.6321  47.2844  1.70474116 59488
GSAT0214 (GALILEO 18)   
1 41862U 16069D   26165.17933449 -.00000010  00000+0  00000+0 0  9993
2 41862  55.4956 101.1651 0004255 319.5735  40.3509  1.70473798 59596
SES-15                  
1 42709U 17026A   26168.50114257  .00000055  00000+0  00000+0 0  9994
2 42709   0.0183 336.2320 0000630 199.5890 141.1638  1.00269254  7432
QZS-2 (MICHIBIKI-2)     
1 42738U 17028A   26168.51850486 -.00000166  00000+0  00000+0 0  9994
2 42738  39.4268 243.1501 0759333 269.2718  81.7354  1.00283788  7629
QZS-3 (MICHIBIKI-3)     
1 42917U 17048A   26168.85068405 -.00000353  00000+0  00000+0 0  9992
2 42917   0.0693 168.0463 0001878 274.8776 256.3956  1.00275707 32264
COSMOS 2522 [GLONASS-M] 
1 42939U 17055A   26168.12295387  .00000065  00000+0  00000+0 0  9994
2 42939  64.0795 191.8866 0011608 242.1031 117.8335  2.13100885 67973
QZS-4 (MICHIBIKI-4)     
1 42965U 17062A   26168.35202472 -.00000355  00000+0  00000+0 0  9992
2 42965  40.1076 343.4792 0745105 271.7859 274.0161  1.00250243 31809
BEIDOU-3 M1             
1 43001U 17069A   26168.13305361 -.00000051  00000+0  00000+0 0  9991
2 43001  56.6923  63.0864 0010443 325.9765  33.9976  1.86230842 58607
BEIDOU-3 M2             
1 43002U 17069B   26168.07179984 -.00000051  00000+0  00000+0 0  9995
2 43002  56.6907  63.1251 0009181 351.5106   8.5146  1.86230639 58591
