OBJECT_NAME,OBJECT_ID,EPOCH,MEAN_MOTION,ECCENTRICITY,INCLINATION,RA_OF_ASC_NODE,ARG_OF_PERICENTER,MEAN_ANOMALY,EPHEMERIS_TYPE,CLASSIFICATION_TYPE,NORAD_CAT_ID,ELEMENT_SET_NO,REV_AT_EPOCH,BSTAR,MEAN_MOTION_DOT,MEAN_MOTION_DDOT
BEIDOU-3S IGSO-1S (C31),2015-019A,2026-06-16T20:07:21.731808,1.00249739,.0039048,49.1960,295.4654,191.2267,171.7059,0,U,40549,999,4107,0,-.175E-5,0
GPS BIIF-10 (PRN 08),2015-033A,2026-06-17T05:18:18.576576,2.00556182,.0115076,53.9823,267.0852,30.2251,330.4756,0,U,40730,999,7999,0,-.25E-6,0
BEIDOU-3S M2S (C58),2015-037A,2026-06-16T18:52:24.392352,1.86231981,.00083908,54.8718,302.0606,259.2390,100.6546,0,U,40748,999,7411,0,-.71E-6,0
BEIDOU-3S M1S (C57),2015-037B,2026-06-16T10:58:00.731424,1.86254753,.0003448,54.8681,302.0590,61.6955,298.3263,0,U,40749,999,7411,0,-.7E-6,0
GSAT0205 (GALILEO 9),2015-045A,2026-05-24T07:17:44.873376,1.67409242,.00064058,54.9357,222.4171,263.0112,96.9692,0,U,40889,999,6656,0,-.14E-6,0
GSAT0206 (GALILEO 10),2015-045B,2026-06-15T16:44:29.456160,1.70473766,.00017913,54.9450,221.6455,333.6365,26.4548,0,U,40890,999,6701,0,.52E-6,0
BEIDOU-3S IGSO-2S (C56),2015-053A,2026-06-17T16:55:35.145696,1.00258762,.0065582,49.2207,258.7761,192.0839,164.1337,0,U,40938,999,3935,0,-.132E-5,0
GPS BIIF-11 (PRN 10),2015-062A,2026-06-16T18:41:08.497248,2.00566887,.0111873,56.9590,30.8268,231.0319,128.0214,0,U,41019,999,7782,0,-.72E-6,0
GSAT-15 (GAGAN/PRN 139),2015-065A,2026-06-17T15:27:13.912992,1.00272214,.0004225,0.0687,265.0590,164.0387,162.1043,0,U,41028,999,3880,0,-.263E-5,0
GSAT0209 (GALILEO 12),2015-079A,2026-06-17T00:55:49.272672,1.70473635,.00052819,55.8274,101.2661,344.0306,15.9200,0,U,41174,999,6477,0,-.12E-6,0
GSAT0208 (GALILEO 11),2015-079B,2026-06-16T02:03:40.443264,1.70473579,.00048641,55.8253,101.2890,343.1626,16.7832,0,U,41175,999,6517,0,-.13E-6,0
IRNSS-1E,2016-003A,2026-06-17T17:44:02.905728,1.00277822,.0019522,33.2353,59.7421,175.9761,48.0133,0,U,41241,999,3808,0,-.32E-5,0
GPS BIIF-12 (PRN 32),2016-007A,2026-06-13T21:04:02.009856,2.00551861,.0096121,55.5220,89.5909,247.4205,111.5460,0,U,41328,999,7577,0,-.28E-6,0
COSMOS 2514 (751),2016-008A,2026-06-17T06:50:37.824000,2.13102573,.0011293,65.0216,313.0031,198.0491,161.8973,0,U,41330,999,8062,0,-.54E-6,0
BEIDOU-2 IGSO-6 (C13),2016-021A,2026-06-16T02:58:21.700128,1.00259474,.00571844,60.2243,38.0497,231.4868,132.3999,0,U,41434,999,3747,0,-.15E-5,0
IRNSS-1G,2016-027A,2026-06-17T18:42:58.823136,1.00265798,.0007548,5.1994,97.4595,355.2759,223.5127,0,U,41469,999,3718,0,-.343E-5,0
GSAT0211 (GALILEO 14),2016-030A,2026-06-14T10:48:10.446624,1.70473900,.0002887,55.0959,221.7703,323.8922,36.1904,0,U,41549,999,6262,0,.59E-6,0
GSAT0210 (GALILEO 13),2016-030B,2026-06-14T16:58:37.998336,1.70473923,.00046489,55.0955,221.7612,244.9793,115.0745,0,U,41550,999,6262,0,.58E-6,0
BEIDOU-2 G7 (C03),2016-037A,2026-06-17T20:20:14.558208,1.00276213,.0006418,1.7218,69.3114,358.0594,254.2501,0,U,41586,999,689,0,-.359E-5,0
EUTELSAT 117 WEST B (WAAS/PRN 131),2016-038B,2026-06-17T11:15:38.600064,1.00273040,.0000477,0.0105,150.8042,293.5309,233.3050,0,U,41589,999,3666,0,-.16E-6,0
GSAT0207 (GALILEO 15),2016-069A,2026-06-16T17:53:23.195904,1.70473533,.0005268,55.4986,101.0985,330.2317,29.7040,0,U,41859,999,5939,0,-.13E-6,0
GSAT0212 (GALILEO 16),2016-069B,2026-06-17T04:27:01.265184,1.70473702,.00046204,55.4965,101.0814,0.5608,359.4079,0,U,41860,999,5965,0,-.13E-6,0
GSAT0213 (GALILEO 17),2016-069C,2026-06-15T04:57:04.571424,1.70474116,.00049587,55.4975,101.1440,312.6321,47.2844,0,U,41861,999,5948,0,-.13E-6,0
GSAT0214 (GALILEO 18),2016-069D,2026-06-14T04:18:14.499936,1.70473798,.0004255,55.4956,101.1651,319.5735,40.3509,0,U,41862,999,5959,0,-.1E-6,0
SES-15 (WAAS/PRN 133),2017-026A,2026-06-17T12:01:38.718048,1.00269254,.000063,0.0183,336.2320,199.5890,141.1638,0,U,42709,999,743,0,.55E-6,0
QZS-2 (QZSS/PRN 194),2017-028A,2026-06-17T12:26:38.819904,1.00283788,.0759333,39.4268,243.1501,269.2718,81.7354,0,U,42738,999,762,0,-.166E-5,0
QZS-3 (QZSS/PRN 199),2017-048A,2026-06-17T20:24:59.101920,1.00275707,.0001878,0.0693,168.0463,274.8776,256.3956,0,U,42917,999,3226,0,-.353E-5,0
COSMOS 2522 (752),2017-055A,2026-06-17T02:57:03.214368,2.13100885,.00116086,64.0795,191.8866,242.1031,117.8335,0,U,42939,999,6797,0,.65E-6,0
QZS-4 (QZSS/PRN 195),2017-062A,2026-06-17T08:26:54.935808,1.00250243,.0745105,40.1076,343.4792,271.7859,274.0161,0,U,42965,999,3180,0,-.355E-5,0
BEIDOU-3 M1 (C19),2017-069A,2026-06-17T03:11:35.831904,1.86230842,.0010443,56.6923,63.0864,325.9765,33.9976,0,U,43001,999,5860,0,-.51E-6,0
BEIDOU-3 M2 (C20),2017-069B,2026-06-17T01:43:23.506176,1.86230639,.00091811,56.6907,63.1251,351.5106,8.5146,0,U,43002,999,5859,0,-.51E-6,0
